[{"OBJECT_NAME":"STARLINK-1020","OBJECT_ID":"2019-074N","EPOCH":"2026-03-09T16:03:14.161824","MEAN_MOTION":15.30188453,"ECCENTRICITY":9.782e-5,"INCLINATION":53.1589,"RA_OF_ASC_NODE":203.9432,"ARG_OF_PERICENTER":90.3777,"MEAN_ANOMALY":269.7336,"EPHEMERIS_TYPE":0,"CLASSIFICATION_TYPE":"U","NORAD_CAT_ID":44725,"ELEMENT_SET_NO":999,"REV_AT_EPOCH":34850,"BSTAR":-5.0945385e-5,"MEAN_MOTION_DOT":-1.867e-5,"MEAN_MOTION_DDOT":0},{"OBJECT_NAME":"GEOSCAN 4 (RS92S4)","OBJECT_ID":"2025-155S","EPOCH":"2026-03-09T21:50:07.724832","MEAN_MOTION":15.30369837,"ECCENTRICITY":0.00070968,"INCLINATION":97.4465,"RA_OF_ASC_NODE":37.7626,"ARG_OF_PERICENTER":154.7045,"MEAN_ANOMALY":205.4544,"EPHEMERIS_TYPE":0,"CLASSIFICATION_TYPE":"U","NORAD_CAT_ID":64892,"ELEMENT_SET_NO":999,"REV_AT_EPOCH":6562,"BSTAR":0.00068609503,"MEAN_MOTION_DOT":0.00020121,"MEAN_MOTION_DDOT":0}]
